{
  "station": "PHNL",
  "metar": "PHNL 071053Z 34003KT 10SM BKN065 23/20 A2991 RMK AO2 SLP128 T02330200 $",
  "issued": "2025-10-07T10:53:00Z",
  "wind_direction_deg": 340,
  "wind_speed_kt": 3,
  "wind_speed_ms": 1.54,
  "visibility_sm": 10.0,
  "temperature_c": 23.0,
  "dewpoint_c": 20.0,
  "pressure_inhg": 29.91,
  "pressure_hpa": 1012.9,
  "raw_lines": [
    "2025/10/07 10:53",
    "PHNL 071053Z 34003KT 10SM BKN065 23/20 A2991 RMK AO2 SLP128 T02330200 $"
  ],
  "source_url": "https://tgftp.nws.noaa.gov/data/observations/metar/stations/PHNL.TXT"
}