{
  "station": "PHJR",
  "metar": "PHJR 071053Z AUTO 06003KT 10SM FEW002 21/20 A2992 RMK AO2 SLP138 T02110200 TSNO",
  "issued": "2025-10-07T10:53:00Z",
  "wind_direction_deg": 60,
  "wind_speed_kt": 3,
  "wind_speed_ms": 1.54,
  "visibility_sm": 10.0,
  "temperature_c": 21.0,
  "dewpoint_c": 20.0,
  "pressure_inhg": 29.92,
  "pressure_hpa": 1013.2,
  "raw_lines": [
    "2025/10/07 10:53",
    "PHJR 071053Z AUTO 06003KT 10SM FEW002 21/20 A2992 RMK AO2 SLP138 T02110200 TSNO"
  ],
  "source_url": "https://tgftp.nws.noaa.gov/data/observations/metar/stations/PHJR.TXT"
}