{
  "station": "PHNL",
  "metar": "PHNL 042053Z 06012KT 10SM FEW025 FEW060 31/19 A3005 RMK AO2 SLP176 T03110189 50001 $",
  "issued": "2025-10-04T20:53:00Z",
  "wind_direction_deg": 60,
  "wind_speed_kt": 12,
  "wind_speed_ms": 6.17,
  "visibility_sm": 10.0,
  "temperature_c": 31.0,
  "dewpoint_c": 19.0,
  "pressure_inhg": 30.05,
  "pressure_hpa": 1017.6,
  "raw_lines": [
    "2025/10/04 20:53",
    "PHNL 042053Z 06012KT 10SM FEW025 FEW060 31/19 A3005 RMK AO2 SLP176 T03110189 50001 $"
  ],
  "source_url": "https://tgftp.nws.noaa.gov/data/observations/metar/stations/PHNL.TXT"
}