{
  "station": "PHNL",
  "metar": "PHNL 020953Z 05003KT 10SM FEW025 FEW070 SCT200 26/20 A3006 RMK AO2 SLP177 T02560200 403170239 $",
  "issued": "2025-10-02T09:53:00Z",
  "wind_direction_deg": 50,
  "wind_speed_kt": 3,
  "wind_speed_ms": 1.54,
  "visibility_sm": 10.0,
  "temperature_c": 26.0,
  "dewpoint_c": 20.0,
  "pressure_inhg": 30.06,
  "pressure_hpa": 1017.9,
  "raw_lines": [
    "2025/10/02 09:53",
    "PHNL 020953Z 05003KT 10SM FEW025 FEW070 SCT200 26/20 A3006 RMK AO2 SLP177 T02560200 403170239 $"
  ],
  "source_url": "https://tgftp.nws.noaa.gov/data/observations/metar/stations/PHNL.TXT"
}