{
  "station": "PHJR",
  "metar": "PHJR 030153Z 14010KT 10SM CLR 29/21 A2996 RMK AO2 SLP152 T02940211",
  "issued": "2025-10-03T01:53:00Z",
  "wind_direction_deg": 140,
  "wind_speed_kt": 10,
  "wind_speed_ms": 5.14,
  "visibility_sm": 10.0,
  "temperature_c": 29.0,
  "dewpoint_c": 21.0,
  "pressure_inhg": 29.96,
  "pressure_hpa": 1014.6,
  "raw_lines": [
    "2025/10/03 01:53",
    "PHJR 030153Z 14010KT 10SM CLR 29/21 A2996 RMK AO2 SLP152 T02940211"
  ],
  "source_url": "https://tgftp.nws.noaa.gov/data/observations/metar/stations/PHJR.TXT"
}