{
  "station": "PHJR",
  "metar": "PHJR 061953Z 13008KT 10SM BKN035 BKN070 28/21 A2996 RMK AO2 SLP152 T02830211",
  "issued": "2025-10-06T19:53:00Z",
  "wind_direction_deg": 130,
  "wind_speed_kt": 8,
  "wind_speed_ms": 4.12,
  "visibility_sm": 10.0,
  "temperature_c": 28.0,
  "dewpoint_c": 21.0,
  "pressure_inhg": 29.96,
  "pressure_hpa": 1014.6,
  "raw_lines": [
    "2025/10/06 19:53",
    "PHJR 061953Z 13008KT 10SM BKN035 BKN070 28/21 A2996 RMK AO2 SLP152 T02830211"
  ],
  "source_url": "https://tgftp.nws.noaa.gov/data/observations/metar/stations/PHJR.TXT"
}