{
  "station": "PHJR",
  "metar": "PHJR 042153Z 11007G18KT 10SM BKN049 BKN065 31/19 A3003 RMK AO2 SLP176 T03060189 $",
  "issued": "2025-10-04T21:53:00Z",
  "wind_direction_deg": 110,
  "wind_speed_kt": 7,
  "wind_speed_ms": 3.6,
  "wind_gust_kt": 18,
  "wind_gust_ms": 9.26,
  "visibility_sm": 10.0,
  "temperature_c": 31.0,
  "dewpoint_c": 19.0,
  "pressure_inhg": 30.03,
  "pressure_hpa": 1016.9,
  "raw_lines": [
    "2025/10/04 21:53",
    "PHJR 042153Z 11007G18KT 10SM BKN049 BKN065 31/19 A3003 RMK AO2 SLP176 T03060189 $"
  ],
  "source_url": "https://tgftp.nws.noaa.gov/data/observations/metar/stations/PHJR.TXT"
}