{
  "station": "PHJR",
  "metar": "PHJR 042053Z 12009G17KT 090V150 10SM SCT055 SCT070 30/21 A3006 RMK AO2 SLP184 T03000211 50001 $",
  "issued": "2025-10-04T20:53:00Z",
  "wind_direction_deg": 120,
  "wind_speed_kt": 9,
  "wind_speed_ms": 4.63,
  "wind_gust_kt": 17,
  "wind_gust_ms": 8.75,
  "visibility_sm": 10.0,
  "temperature_c": 30.0,
  "dewpoint_c": 21.0,
  "pressure_inhg": 30.06,
  "pressure_hpa": 1017.9,
  "raw_lines": [
    "2025/10/04 20:53",
    "PHJR 042053Z 12009G17KT 090V150 10SM SCT055 SCT070 30/21 A3006 RMK AO2 SLP184 T03000211 50001 $"
  ],
  "source_url": "https://tgftp.nws.noaa.gov/data/observations/metar/stations/PHJR.TXT"
}