{
  "station": "PHJR",
  "metar": "PHJR 051053Z AUTO 00000KT 10SM CLR 23/18 A3005 RMK AO2 SLP181 T02330183 TSNO $",
  "issued": "2025-10-05T10:53:00Z",
  "wind_direction_deg": 0,
  "wind_speed_kt": 0,
  "wind_speed_ms": 0.0,
  "visibility_sm": 10.0,
  "temperature_c": 23.0,
  "dewpoint_c": 18.0,
  "pressure_inhg": 30.05,
  "pressure_hpa": 1017.6,
  "raw_lines": [
    "2025/10/05 10:53",
    "PHJR 051053Z AUTO 00000KT 10SM CLR 23/18 A3005 RMK AO2 SLP181 T02330183 TSNO $"
  ],
  "source_url": "https://tgftp.nws.noaa.gov/data/observations/metar/stations/PHJR.TXT"
}