{
  "station": "PHJR",
  "metar": "PHJR 031853Z 00000KT 10SM FEW027 28/21 A3004 RMK AO2 SLP177 T02780206",
  "issued": "2025-10-03T18:53:00Z",
  "wind_direction_deg": 0,
  "wind_speed_kt": 0,
  "wind_speed_ms": 0.0,
  "visibility_sm": 10.0,
  "temperature_c": 28.0,
  "dewpoint_c": 21.0,
  "pressure_inhg": 30.04,
  "pressure_hpa": 1017.3,
  "raw_lines": [
    "2025/10/03 18:53",
    "PHJR 031853Z 00000KT 10SM FEW027 28/21 A3004 RMK AO2 SLP177 T02780206"
  ],
  "source_url": "https://tgftp.nws.noaa.gov/data/observations/metar/stations/PHJR.TXT"
}