{
  "station": "PHNL",
  "metar": "PHNL 051053Z 08009KT 10SM FEW025 FEW045 26/19 A3004 RMK AO2 SLP171 T02610189 $",
  "issued": "2025-10-05T10:53:00Z",
  "wind_direction_deg": 80,
  "wind_speed_kt": 9,
  "wind_speed_ms": 4.63,
  "visibility_sm": 10.0,
  "temperature_c": 26.0,
  "dewpoint_c": 19.0,
  "pressure_inhg": 30.04,
  "pressure_hpa": 1017.3,
  "raw_lines": [
    "2025/10/05 10:53",
    "PHNL 051053Z 08009KT 10SM FEW025 FEW045 26/19 A3004 RMK AO2 SLP171 T02610189 $"
  ],
  "source_url": "https://tgftp.nws.noaa.gov/data/observations/metar/stations/PHNL.TXT"
}