{
  "station": "PHNL",
  "metar": "PHNL 061953Z 11005KT 10SM FEW025 SCT040 SCT060 27/20 A2996 RMK AO2 SLP145 T02720200 $",
  "issued": "2025-10-06T19:53:00Z",
  "wind_direction_deg": 110,
  "wind_speed_kt": 5,
  "wind_speed_ms": 2.57,
  "visibility_sm": 10.0,
  "temperature_c": 27.0,
  "dewpoint_c": 20.0,
  "pressure_inhg": 29.96,
  "pressure_hpa": 1014.6,
  "raw_lines": [
    "2025/10/06 19:53",
    "PHNL 061953Z 11005KT 10SM FEW025 SCT040 SCT060 27/20 A2996 RMK AO2 SLP145 T02720200 $"
  ],
  "source_url": "https://tgftp.nws.noaa.gov/data/observations/metar/stations/PHNL.TXT"
}