2025/11/23 04:53
PHJR 230453Z VRB05KT 10SM CLR 24/19 A2999 RMK AO2 SLP163 T02440194
