2025/11/23 04:53
PHNL 230453Z 05005KT 10SM FEW025 FEW040 BKN200 26/19 A2999 RMK AO2 SLP155 T02560189 $
